ONEWEB-0158             
1 48054U 21025N   26080.21936591  .00000035  00000+0  60408-4 0  9992
2 48054  87.9032 337.7187 0001768  89.9908 270.1424 13.13472107242088
ONEWEB-0157             
1 48055U 21025P   26080.16858737  .00000346  00000+0  91205-3 0  9995
2 48055  87.9032 337.7336 0002021  69.8524 290.2823 13.13470966242019
ONEWEB-0162             
1 48056U 21025Q   26080.14474667  .00000089  00000+0  20850-3 0  9992
2 48056  87.9029 337.7424 0001633  75.2577 284.8733 13.13469856241981
ONEWEB-0155             
1 48057U 21025R   26080.15166043  .00000287  00000+0  75110-3 0  9999
2 48057  87.9024 337.7393 0001903  78.1555 281.9788 13.13471338242123
ONEWEB-0149             
1 48058U 21025S   26080.17366085  .00000223  00000+0  57468-3 0  9996
2 48058  87.9032 337.7327 0001551  73.1999 286.9301 13.13471138241938
ONEWEB-0148             
1 48059U 21025T   26080.21258059 -.00000407  00000+0 -11485-2 0  9997
2 48059  87.9026 337.7383 0001518  59.7361 300.3918 13.13470210242060
ONEWEB-0160             
1 48060U 21025U   26080.15334151  .00000331  00000+0  87241-3 0  9998
2 48060  87.9022 337.7466 0001533 105.7075 254.4223 13.13472007242009
ONEWEB-0163             
1 48061U 21025V   26080.13810926 -.00000034  00000+0 -12887-3 0  9992
2 48061  87.9029 337.7421 0001952  72.7746 287.3597 13.13472231242122
ONEWEB-0159             
1 48062U 21025W   26080.20582403 -.00000170  00000+0 -49909-3 0  9993
2 48062  87.9036 337.7161 0001794  71.3304 288.8020 13.13470778242054
ONEWEB-0164             
1 48063U 21025X   26080.18720022 -.00000090  00000+0 -28057-3 0  9994
2 48063  87.9035 337.7264 0001696  81.1324 278.9998 13.13470549242038
ONEWEB-0167             
1 48064U 21025Y   26080.21514174 -.00000069  00000+0 -22380-3 0  9997
2 48064  87.9023 337.7388 0002455  81.2418 278.8989 13.13472755242021
ONEWEB-0166             
1 48065U 21025Z   26080.16180964  .00000406  00000+0  10765-2 0  9994
2 48065  87.9032 337.7132 0001656  72.9328 287.1983 13.13471403242091
ONEWEB-0151             
1 48066U 21025AA  26080.16351449  .00000353  00000+0  93126-3 0  9997
2 48066  87.9025 337.7381 0001860  80.8920 279.2419 13.13470795242036
ONEWEB-0170             
1 48067U 21025AB  26080.17196743  .00000296  00000+0  77660-3 0  9994
2 48067  87.9026 337.7380 0001894  92.7789 267.3557 13.13471000241994
ONEWEB-0168             
1 48068U 21025AC  26080.15672962  .00000350  00000+0  92337-3 0  9994
2 48068  87.9032 337.7331 0001831  74.0218 286.1113 13.13471837242007
ONEWEB-0173             
1 48069U 21025AD  26080.22444676  .00000143  00000+0  35743-3 0  9990
2 48069  87.9029 337.7261 0002095  74.0117 286.1242 13.13472086242254
ONEWEB-0171             
1 48070U 21025AE  26080.18550540 -.00000027  00000+0 -10814-3 0  9990
2 48070  87.9020 337.7453 0001796  80.9661 279.1672 13.13469887242060
ONEWEB-0172             
1 48071U 21025AF  26080.16519898  .00000309  00000+0  80998-3 0  9991
2 48071  87.9022 337.7369 0001851  78.7303 281.4035 13.13471207242955
ONEWEB-0174             
1 48072U 21025AG  26080.22275571  .00000106  00000+0  25422-3 0  9992
2 48072  87.9020 337.7264 0001698  74.1925 285.9391 13.13471476242285
ONEWEB-0175             
1 48073U 21025AH  26080.25322985  .00000177  00000+0  44875-3 0  9999
2 48073  87.9030 337.6972 0001974  85.4911 274.6443 13.13470708241941
ONEWEB-0177             
1 48074U 21025AJ  26080.18888989 -.00000111  00000+0 -33894-3 0  9992
2 48074  87.9033 337.7312 0001817  72.4692 287.6636 13.13470688242128
ONEWEB-0178             
1 48075U 21025AK  26080.20765230 -.00000188  00000+0 -54842-3 0  9999
2 48075  87.9014 337.7524 0002017  80.3964 279.7393 13.13471807242177
ONEWEB-0108             
1 48076U 21025AL  26080.16688984  .00000356  00000+0  93929-3 0  9999
2 48076  87.9031 337.7237 0001494  79.1972 280.9325 13.13471115242093
ONEWEB-0169             
1 48077U 21025AM  26079.97051418 -.00000323  00000+0 -92074-3 0  9999
2 48077  87.9027 337.7775 0001509  78.0793 282.0505 13.13470570240727
GAOFEN-12 02            
1 48079U 21026A   26080.28252169  .00000427  00000+0  63062-4 0  9993
2 48079  97.9923  78.8322 0005501 145.1510 215.0063 14.80216493268750
STARLINK-2404           
1 48093U 21027B   26079.75391271  .00002857  00000+0  10855-3 0  9998
2 48093  53.1584 103.5595 0001409  80.8745 279.2415 15.30203238274354
STARLINK-2412           
1 48094U 21027C   26079.49684065 -.00000255  00000+0  35148-5 0  9991
2 48094  53.1607 115.0764 0001362  89.8553 270.2604 15.30198772274178
STARLINK-2414           
1 48095U 21027D   26080.29113938  .00002112  00000+0  83355-4 0  9993
2 48095  53.1609 111.4227 0001254  88.8092 271.3053 15.30216982274301
STARLINK-2417           
1 48096U 21027E   26080.29435370  .00003447  00000+0  12841-3 0  9994
2 48096  53.1594 111.6902 0001061  83.9231 276.1891 15.30206818274281
