OBJECT_NAME,OBJECT_ID,EPOCH,MEAN_MOTION,ECCENTRICITY,INCLINATION,RA_OF_ASC_NODE,ARG_OF_PERICENTER,MEAN_ANOMALY,EPHEMERIS_TYPE,CLASSIFICATION_TYPE,NORAD_CAT_ID,ELEMENT_SET_NO,REV_AT_EPOCH,BSTAR,MEAN_MOTION_DOT,MEAN_MOTION_DDOT,OBJECT_TYPE
ONEWEB-0158,2021-025N,2026-03-21T05:15:53.214624,13.13472107,.00017682,87.9032,337.7187,89.9908,270.1424,0,U,48054,999,24208,.60407689E-4,.35E-6,0,Active
ONEWEB-0157,2021-025P,2026-03-21T04:02:45.948768,13.13470966,.00020211,87.9032,337.7336,69.8524,290.2823,0,U,48055,999,24201,.91205227E-3,.346E-5,0,Active
ONEWEB-0162,2021-025Q,2026-03-21T03:28:26.112288,13.13469856,.00016332,87.9029,337.7424,75.2577,284.8733,0,U,48056,999,24198,.20850013E-3,.89E-6,0,Active
ONEWEB-0155,2021-025R,2026-03-21T03:38:23.461152,13.13471338,.00019037,87.9024,337.7393,78.1555,281.9788,0,U,48057,999,24212,.75110399E-3,.287E-5,0,Active
ONEWEB-0149,2021-025S,2026-03-21T04:10:04.297440,13.13471138,.00015516,87.9032,337.7327,73.1999,286.9301,0,U,48058,999,24193,.57468389E-3,.223E-5,0,Active
ONEWEB-0148,2021-025T,2026-03-21T05:06:06.962976,13.13470210,.00015186,87.9026,337.7383,59.7361,300.3918,0,U,48059,999,24206,-.1148514E-2,-.407E-5,0,Active
ONEWEB-0160,2021-025U,2026-03-21T03:40:48.706464,13.13472007,.00015333,87.9022,337.7466,105.7075,254.4223,0,U,48060,999,24200,.87240689E-3,.331E-5,0,Active
ONEWEB-0163,2021-025V,2026-03-21T03:18:52.640064,13.13472231,.00019526,87.9029,337.7421,72.7746,287.3597,0,U,48061,999,24212,-.1288659E-3,-.34E-6,0,Active
ONEWEB-0159,2021-025W,2026-03-21T04:56:23.196192,13.13470778,.00017941,87.9036,337.7161,71.3304,288.8020,0,U,48062,999,24205,-.49908591E-3,-.17E-5,0,Active
ONEWEB-0164,2021-025X,2026-03-21T04:29:34.099008,13.13470549,.00016967,87.9035,337.7264,81.1324,278.9998,0,U,48063,999,24203,-.28056857E-3,-.9E-6,0,Active
ONEWEB-0167,2021-025Y,2026-03-21T05:09:48.246336,13.13472755,.00024555,87.9023,337.7388,81.2418,278.8989,0,U,48064,999,24202,-.22379539E-3,-.69E-6,0,Active
ONEWEB-0166,2021-025Z,2026-03-21T03:53:00.352896,13.13471403,.00016564,87.9032,337.7132,72.9328,287.1983,0,U,48065,999,24209,.10765344E-2,.406E-5,0,Active
ONEWEB-0151,2021-025AA,2026-03-21T03:55:27.651936,13.13470795,.00018601,87.9025,337.7381,80.8920,279.2419,0,U,48066,999,24203,.93126104E-3,.353E-5,0,Active
ONEWEB-0170,2021-025AB,2026-03-21T04:07:37.985952,13.13471000,.00018942,87.9026,337.7380,92.7789,267.3557,0,U,48067,999,24199,.77660001E-3,.296E-5,0,Active
ONEWEB-0168,2021-025AC,2026-03-21T03:45:41.439168,13.13471837,.00018316,87.9032,337.7331,74.0218,286.1113,0,U,48068,999,24200,.92337147E-3,.35E-5,0,Active
ONEWEB-0173,2021-025AD,2026-03-21T05:23:12.200064,13.13472086,.00020954,87.9029,337.7261,74.0117,286.1242,0,U,48069,999,24225,.35742779E-3,.143E-5,0,Active
ONEWEB-0171,2021-025AE,2026-03-21T04:27:07.666560,13.13469887,.00017966,87.9020,337.7453,80.9661,279.1672,0,U,48070,999,24206,-.10814386E-3,-.27E-6,0,Active
ONEWEB-0172,2021-025AF,2026-03-21T03:57:53.191872,13.13471207,.00018514,87.9022,337.7369,78.7303,281.4035,0,U,48071,999,24295,.80998349E-3,.309E-5,0,Active
ONEWEB-0174,2021-025AG,2026-03-21T05:20:46.093344,13.13471476,.00016984,87.9020,337.7264,74.1925,285.9391,0,U,48072,999,24228,.25422468E-3,.106E-5,0,Active
ONEWEB-0175,2021-025AH,2026-03-21T06:04:39.059040,13.13470708,.00019743,87.9030,337.6972,85.4911,274.6443,0,U,48073,999,24194,.44875405E-3,.177E-5,0,Active
ONEWEB-0177,2021-025AJ,2026-03-21T04:32:00.086496,13.13470688,.00018173,87.9033,337.7312,72.4692,287.6636,0,U,48074,999,24212,-.33894269E-3,-.111E-5,0,Active
ONEWEB-0178,2021-025AK,2026-03-21T04:59:01.158720,13.13471807,.00020175,87.9014,337.7524,80.3964,279.7393,0,U,48075,999,24217,-.54841892E-3,-.188E-5,0,Active
ONEWEB-0108,2021-025AL,2026-03-21T04:00:19.282176,13.13471115,.00014947,87.9031,337.7237,79.1972,280.9325,0,U,48076,999,24209,.93929085E-3,.356E-5,0,Active
ONEWEB-0169,2021-025AM,2026-03-20T23:17:32.425152,13.13470570,.00015098,87.9027,337.7775,78.0793,282.0505,0,U,48077,999,24072,-.92074195E-3,-.323E-5,0,Active
GAOFEN-12 02,2021-026A,2026-03-21T06:46:49.874016,14.80216493,.00055014,97.9923,78.8322,145.1510,215.0063,0,U,48079,999,26875,.63062347E-4,.427E-5,0,Active
STARLINK-2404,2021-027B,2026-03-20T18:05:38.058144,15.30203238,.00014093,53.1584,103.5595,80.8745,279.2415,0,U,48093,999,27435,.10854708E-3,.2857E-4,0,Active
STARLINK-2412,2021-027C,2026-03-20T11:55:27.032160,15.30198772,.00013625,53.1607,115.0764,89.8553,270.2604,0,U,48094,999,27417,.3514824E-5,-.255E-5,0,Active
STARLINK-2414,2021-027D,2026-03-21T06:59:14.442432,15.30216982,.00012546,53.1609,111.4227,88.8092,271.3053,0,U,48095,999,27430,.83354605E-4,.2112E-4,0,Active
STARLINK-2417,2021-027E,2026-03-21T07:03:52.159680,15.30206818,.00010613,53.1594,111.6902,83.9231,276.1891,0,U,48096,999,27428,.12840968E-3,.3447E-4,0,Active
